IRIDIUM 144             
1 43249U 18030A   23329.47200832  .00000311  00000+0  10387-3 0  9995
2 43249  86.3941 321.0676 0002331  89.6067 270.5396 14.34218432296163
IRIDIUM 149             
1 43250U 18030B   23329.47833626  .00000309  00000+0  10320-3 0  9994
2 43250  86.3940 321.0422 0002495  88.4327 271.7155 14.34220850296185
IRIDIUM 157             
1 43251U 18030C   23329.49735184  .00000261  00000+0  86246-4 0  9995
2 43251  86.3940 321.0670 0001982  90.0735 270.0688 14.34218533296169
IRIDIUM 140             
1 43252U 18030D   23329.44661975  .00000322  00000+0  10796-3 0  9991
2 43252  86.3941 321.1026 0002499  95.3740 264.7741 14.34220287296210
IRIDIUM 145             
1 43253U 18030E   23329.50370870  .00000328  00000+0  11010-3 0  9996
2 43253  86.3941 321.0532 0002563  87.8891 272.2598 14.34220555296152
IRIDIUM 146             
1 43254U 18030F   23329.48466845  .00000268  00000+0  88635-4 0  9993
2 43254  86.3940 321.0768 0002468  84.5405 275.6073 14.34218270296169
IRIDIUM 148             
1 43255U 18030G   23329.52275047  .00000334  00000+0  11218-3 0  9997
2 43255  86.3942 321.0897 0002316  82.1189 278.0270 14.34218607296205
IRIDIUM 142             
1 43256U 18030H   23329.49102131  .00000310  00000+0  10378-3 0  9997
2 43256  86.3939 321.0259 0002270  84.6904 275.4550 14.34220807296167
